INFORMATOR 1 & RS-14    
1 21087U 91006A   24129.63992486  .00000070  00000+0  57258-4 0  9996
2 21087  82.9430 335.6192 0034182 222.8481 196.7260 13.75401138669757
